application_id|house_name|street|city|state|zipcode|Country|email_id
100000|Gita G. Kumar|est, mollis|Jurupa Valley|New South Wales|CA05 4EU|France|sed.leo@lacusNullatincidunt.org
100001|Jalahasini D. Ismail|urna suscipit|Jackson|South Gyeongsang|295809|Germany|Suspendisse.ac@DuisgravidaPraesent.co.uk
100002|Hridayesh O. Khan|dolor. Quisque|Shreveport|Alberta|219987|USA|justo@aduiCras.org
100003|Sanjay N. Singh|magna. Praesent|Detroit|Berlin|Z7564|UK|lorem.fringilla@Phasellusfermentumconvallis.edu
100004|Samarendra D. Patel|ac, eleifend|St. Louis[m]|Irkutsk Oblast|59966|Canada|habitant.morbi.tristique@Duis.edu
100005|Bijal D. Jain|at, velit.|Toledo|Midi-Pyrénées|T2H 6N4|England|Nunc.ullamcorper.velit@congue.com
100006|Amal X. Khan|erat vel|Rockford|Midlothian|17334|Russia|odio@ornarelibero.co.uk
100007|Smritiman I. Raj|vestibulum massa|Baltimore[m]|Ontario|381750|South Africa|tincidunt.tempus.risus@magnis.net
100008|Pravir Z. Ismail|euismod mauris|Baton Rouge[s]|Oregon|3829|China|Proin.ultrices.Duis@sodales.edu
100009|Shyla R. Singh|ligula. Aenean|Peoria|Lancashire|25603|Nepal|est.Mauris@necenimNunc.ca
100010|Tarakeshwar O. Ismail|molestie orci|Cleveland|Hamburg|67247|France|Proin@mauris.org
100011|Namasyu Q. Jain|fringilla cursus|Montgomery|Essex|1698 HF|Germany|aliquam.adipiscing@fringillaeuismod.edu
100012|Kamat G. Raj|in, hendrerit|Waterbury|Gyeonggi|030969|USA|pede@ornare.org
100013|Anjuman Y. Khan|egestas, urna|Buffalo|Ontario|057781|UK|varius.Nam.porttitor@vulputateullamcorpermagna.com
100014|Prabodh R. Jain|cursus in,|Rochester|North Chungcheong|53570|Canada|pharetra@et.co.uk
100015|Janhitha Q. Kumar|pharetra. Nam|Hartford|Lorraine|95782-669|England|Phasellus.vitae@nonenim.ca
100016|Ainesh Z. Raj|ornare, facilisis|Syracuse|Prince Edward Island|63569|Russia|Sed@amet.com
100017|Mithi T. Patel|Nulla dignissim.|Pittsburgh|Gyeonggi|18394|South Africa|amet.lorem.semper@ultricesDuisvolutpat.ca
100018|Phanishwar J. Kumar|Nullam lobortis|Springfield|Queensland|B4H 0J0|China|Mauris.nulla.Integer@felis.ca
100019|Jaiwanti O. Patel|arcu imperdiet|Topeka|Chelyabinsk Oblast|Z1724|Nepal|tincidunt.nibh.Phasellus@semmagnanec.com
100020|Teja J. Singh|commodo hendrerit.|Jurupa Valley|Kostroma Oblast|150538|France|Donec@augueeutellus.ca
100021|Sampat B. Singh|auctor quis,|Jackson|New South Wales|1977 GL|Germany|a@variusorciin.ca
100022|Anbarasu S. Raj|Nulla dignissim.|Shreveport|South Gyeongsang|L5P 8J9|USA|non.nisi@arcuVestibulum.org
100023|Chaitaly U. Raj|nibh. Aliquam|Detroit|Alberta|50714|UK|ultrices.mauris@ornare.co.uk
100024|Jujhar G. Singh|consectetuer euismod|St. Louis[m]|Berlin|175040|Canada|faucibus.Morbi@sit.com
100025|Pragya Q. Kumar|mollis. Duis|Toledo|Irkutsk Oblast|21564|England|ullamcorper.magna@Vivamusnon.co.uk
100026|Bansi N. Kumar|ut aliquam|Rockford|Midi-Pyrénées|547845|Russia|est@estconguea.edu
100027|Deepashikha L. Jain|convallis dolor.|Baltimore[m]|Midlothian|138971|South Africa|tellus.imperdiet.non@arcuMorbi.org
100028|Vivekananda F. Jain|Cras dolor|Baton Rouge[s]|Ontario|437362|China|adipiscing.elit@Etiamlaoreet.com
100029|Madira U. Raj|tempus, lorem|Peoria|Oregon|390329|Nepal|lobortis@tempuseuligula.org
100030|Bakhtawar P. Jain|ligula eu|Cleveland|Lancashire|8502|France|mollis.non.cursus@nulla.net
100031|Sankara A. Patel|cursus. Nunc|Montgomery|Hamburg|S8B 0K3|Germany|ac@auctor.net
100032|Ananmaya L. Jain|luctus et|Waterbury|Essex|47361-142|USA|lectus.Nullam@Proin.com
100033|Shravankumar D. Jain|consectetuer ipsum|Buffalo|Gyeonggi|V0 4VQ|UK|pellentesque@tinciduntduiaugue.org
100034|Geeta I. Patel|ornare, lectus|Rochester|Ontario|3894|Canada|metus.Aliquam.erat@Duisat.net
100035|Kiran O. Raj|sem, consequat|Hartford|North Chungcheong|23547|England|pede.blandit@Pellentesque.net
100036|Maharath R. Ismail|dis parturient|Syracuse|Lorraine|20412|Russia|odio@placerat.ca
100037|Ihitha J. Patel|congue a,|Pittsburgh|Prince Edward Island|8426|South Africa|lorem.ac.risus@magnaaneque.net
100038|Maniram P. Ismail|Etiam ligula|Springfield|Gyeonggi|625464|China|magna.a@dictumeu.co.uk
100039|Leelamayee X. Kumar|varius orci,|Topeka|Queensland|929978|Nepal|leo.in.lobortis@lacusvestibulum.net
100040|Sunita S. Ismail|dapibus id,|Jurupa Valley|Chelyabinsk Oblast|M6P 8B4|France|lacus@turpisIncondimentum.ca
100041|Maya D. Raj|interdum. Sed|Jackson|Kostroma Oblast|09965-590|Germany|felis.purus.ac@auctor.org
100042|Nabendu O. Jain|sagittis placerat.|Shreveport|New South Wales|498334|USA|nec.tempus.mauris@inceptoshymenaeosMauris.ca
100043|Dhithi X. Ismail|a, malesuada|Detroit|South Gyeongsang|48563|UK|vitae.aliquam@pharetra.ca
100044|Harshit W. Patel|id sapien.|St. Louis[m]|Alberta|8793|Canada|Nulla.semper.tellus@Maecenas.co.uk
100045|Chitral C. Khan|adipiscing lobortis|Toledo|Berlin|546995|England|sed.libero.Proin@bibendum.co.uk
100046|Hritish L. Khan|magna sed|Rockford|Irkutsk Oblast|713396|Russia|fermentum.convallis.ligula@purusaccumsan.org
100047|Tungesh A. Patel|ridiculus mus.|Baltimore[m]|Midi-Pyrénées|492662|South Africa|porttitor@elitafeugiat.ca
100048|Jaisukh R. Ismail|Cum sociis|Baton Rouge[s]|Midlothian|09-348|China|et.malesuada@ligulaNullamenim.com
100049|Ambuja J. Raj|pede, nonummy|Peoria|Ontario|23489-158|Nepal|aliquet.Proin@sed.edu
100050|Piyush U. Patel|Sed neque.|Cleveland|Oregon|30115|France|consectetuer.adipiscing@pharetra.edu
100051|Ajanta K. Ismail|sociis natoque|Montgomery|Lancashire|42930|Germany|neque.In.ornare@facilisisfacilisis.org
100052|Dhyanesh M. Ismail|sit amet|Waterbury|Hamburg|670555|USA|aliquam.eros@nisiMauris.net
100053|Kriya J. Ismail|Fusce feugiat.|Buffalo|Essex|30807|UK|scelerisque.scelerisque@Phaselluselit.edu
100054|Rajiv T. Kumar|Donec sollicitudin|Rochester|Gyeonggi|6365|Canada|orci@egetmetusIn.org
100055|Vatsala F. Ismail|egestas nunc|Hartford|Ontario|15468|England|vitae.sodales.nisi@lacusNullatincidunt.org
100056|Mrinmayi O. Jain|lorem, vehicula|Syracuse|North Chungcheong|70540|Russia|cursus.et@ultricesa.net
100057|Dhvanya Q. Patel|vehicula aliquet|Pittsburgh|Lorraine|76556|South Africa|Nunc.quis.arcu@odioPhasellus.net
100058|Govinda O. Ismail|ut, pharetra|Springfield|Prince Edward Island|11794|China|lorem.sit.amet@purusin.co.uk
100059|Avadhesh E. Singh|feugiat metus|Topeka|Gyeonggi|334615|Nepal|adipiscing.elit@Aliquamnecenim.co.uk
100060|Vasanta V. Kumar|vel pede|Jurupa Valley|Queensland|751617|France|ad@hendreritneque.edu
100061|Dilshad T. Jain|lorem, auctor|Jackson|Chelyabinsk Oblast|1207|Germany|scelerisque.dui.Suspendisse@Donectemporest.co.uk
100062|Anarghya O. Singh|erat volutpat.|Shreveport|Kostroma Oblast|1581|USA|fames.ac@enimdiam.edu
100063|Monisha P. Kumar|vestibulum. Mauris|Detroit|New South Wales|44239|UK|diam.eu.dolor@Quisquepurus.ca
100064|Mrinali C. Khan|vitae aliquam|St. Louis[m]|South Gyeongsang|680628|Canada|fringilla@temporlorem.co.uk
100065|Alhad N. Patel|eros nec|Toledo|Alberta|43613|England|aliquam@arcu.com
100066|Viral K. Khan|massa. Mauris|Rockford|Berlin|686355|Russia|elit@venenatis.org
100067|Muskan A. Singh|nulla. Donec|Baltimore[m]|Irkutsk Oblast|6189|South Africa|orci.sem@orci.org
100068|Padmakali E. Singh|magnis dis|Baton Rouge[s]|Midi-Pyrénées|25878|China|at.velit.Pellentesque@diam.com
100069|Sanobar H. Raj|fermentum vel,|Peoria|Midlothian|27790|Nepal|at@quisdiamPellentesque.co.uk
100070|Shridevi V. Raj|tellus non|Cleveland|Ontario|71315|France|In.faucibus@vitae.com
100071|Sudama G. Jain|Etiam imperdiet|Montgomery|Oregon|A5A 1N1|Nationality|Pellentesque.ut@nislarcuiaculis.net
100072|Isaivalan U. Jain|mollis dui,|Waterbury|Lancashire|763608|France|justo.nec@luctusetultrices.co.uk
100073|Abhithi E. Patel|penatibus et|Buffalo|Hamburg|05584|Germany|eleifend.nunc@fames.edu
100074|Mohan N. Jain|id, ante.|Rochester|Essex|J7K 6T1|USA|Donec.consectetuer@a.net
100075|Nathan G. Khan|lacus. Aliquam|Hartford|Gyeonggi|V5R 0V6|UK|nulla@tempus.net
100076|Madri C. Khan|magnis dis|Syracuse|Ontario|20619|Canada|ut@vehiculaaliquetlibero.com
100077|Shakyasinha P. Patel|nisi a|Pittsburgh|North Chungcheong|78881|England|quam@ante.net
100078|Shyamasri D. Khan|Fusce mollis.|Springfield|Lorraine|Z2451|Russia|euismod@consectetuereuismodest.co.uk
100079|Srikant B. Khan|ornare placerat,|Topeka|Prince Edward Island|53188|South Africa|commodo.ipsum@quamvelsapien.com
100080|Lalima D. Singh|nascetur ridiculus|Jurupa Valley|Gyeonggi|964391|China|molestie.Sed@dis.edu
100081|Tanseem D. Patel|ornare sagittis|Jackson|Queensland|15837|Nepal|eu.tellus.Phasellus@turpisnec.net
100082|Sunila B. Khan|sodales purus,|Shreveport|Chelyabinsk Oblast|37276|France|rutrum@ipsumnon.edu
100083|Shuchita A. Raj|urna. Nullam|Detroit|Kostroma Oblast|31410|Germany|nibh.sit.amet@Nuncquis.net
100084|Netravati T. Ismail|et libero.|St. Louis[m]|New South Wales|57812|USA|sociis@adipiscingelit.com
100085|Faris B. Ismail|eu tellus.|Toledo|South Gyeongsang|642163|UK|aliquet.sem@vehicularisusNulla.edu
100086|Ranjana R. Patel|montes, nascetur|Rockford|Alberta|788691|Canada|arcu@lobortis.ca
100087|Avikshit F. Singh|arcu imperdiet|Baltimore[m]|Berlin|97-488|England|accumsan.interdum@dolorsit.ca
100088|Abhayaprada A. Khan|pede. Suspendisse|Baton Rouge[s]|Irkutsk Oblast|831961|Russia|non@Duisac.net
100089|Dhaval V. Kumar|cursus a,|Peoria|Midi-Pyrénées|691885|South Africa|lacinia@euarcuMorbi.co.uk
100090|Pravir D. Ismail|ac metus|Cleveland|Midlothian|Z7515|China|elementum.purus.accumsan@necmetusfacilisis.edu
100091|Shyamal L. Khan|convallis ligula.|Montgomery|Ontario|14873|Nepal|venenatis.a@Vivamuseuismod.co.uk
100092|Chinmay L. Khan|magna nec|Waterbury|Oregon|73825|France|luctus.ipsum.leo@Aliquamultricesiaculis.ca
100093|Unnati E. Patel|ut dolor|Buffalo|Lancashire|05184|Germany|egestas@ametconsectetueradipiscing.org
100094|Neelabja O. Kumar|Nullam scelerisque|Rochester|Hamburg|31477|USA|non@rutrumlorem.co.uk
100095|Arundhati K. Raj|purus mauris|Hartford|Essex|Z2817|UK|dictum.augue.malesuada@malesuada.com
100096|Itish Y. Ismail|bibendum ullamcorper.|Syracuse|Gyeonggi|53312-20862|Canada|velit@vitaeorciPhasellus.edu
100097|Nandita Q. Kumar|nulla ante,|Pittsburgh|Ontario|97442|England|mi.lacinia@orciPhasellus.edu
100098|Rajkumar D. Khan|mus. Aenean|Springfield|North Chungcheong|58901|Russia|aliquet.odio@Pellentesquetincidunttempus.com
100099|Januja V. Kumar|enim, sit|Topeka|Lorraine|72132-424|South Africa|sapien.cursus@Namconsequatdolor.org
